0 FENGYUN 1C DEB
1 32179U 99025CTZ 19280.87316295 +.00000046 +00000-0 +55048-4 0  9994
2 32179 099.2123 307.6765 0146633 326.5926 156.0428 14.02168911340758
0 FENGYUN 1C DEB
1 32180U 99025CUA 19280.76390142 +.00000016 +00000-0 +53425-4 0  9991
2 32180 099.5373 242.2201 0137929 025.9836 090.5593 13.81739724630802
0 FENGYUN 1C DEB
1 32181U 99025CUB 19280.95806668  .00000493  00000-0  16166-3 0  9997
2 32181  99.5202  86.0912 0094288 222.2255 292.1212 14.41182162641742
0 FENGYUN 1C DEB
1 32185U 99025CUF 19280.77116485 +.00001925 +00000-0 +37702-3 0  9992
2 32185 098.7702 038.4352 0479643 170.2010 190.8940 14.10064474626919
0 FENGYUN 1C DEB
1 32187U 99025CUH 19280.63892655 +.00000068 +00000-0 +13147-3 0  9993
2 32187 099.3690 074.9226 0297482 034.0942 024.7113 13.48870701358039
0 FENGYUN 1C DEB
1 32187U 99025CUH 19281.37508973  .00000075  00000-0  13988-3 0  9993
2 32187  99.3691  75.6149 0297459  32.2493 359.4702 13.48870885603259
0 FENGYUN 1C DEB
1 32189U 99025CUK 19280.35060608 +.00001196 +00000-0 +57075-3 0  9990
2 32189 099.0076 325.0454 0035448 060.0247 300.4440 14.20877865322417
0 FENGYUN 1C DEB
1 32190U 99025CUL 19280.90939119 +.00001582 +00000-0 +40634-3 0  9997
2 32190 098.9470 171.1246 0062673 012.9129 347.3651 14.50632894384235
0 FENGYUN 1C DEB
1 32190U 99025CUL 19280.90939119  .00001582  00000-0  40634-3 0  9997
2 32190  98.9470 171.1246 0062673  12.9129 347.3651 14.50632894641635
0 FENGYUN 1C DEB
1 32193U 99025CUP 19280.54800978 +.00001238 +00000-0 +58359-3 0  9991
2 32193 098.4764 047.8324 0105123 183.1639 176.8885 14.18686601628357
0 FENGYUN 1C DEB
1 32195U 99025CUR 19281.31048522  .00000430  00000-0  28895-3 0  9993
2 32195  98.9115 311.4648 0073436 152.2453 208.2663 14.04594242626238
0 FENGYUN 1C DEB
1 32197U 99025CUT 19280.41718517 +.00000146 +00000-0 +69146-4 0  9992
2 32197 099.0502 083.4924 0172908 298.1008 091.7391 14.27422575621710
0 FENGYUN 1C DEB
1 32199U 99025CUV 19280.27485045 +.00001939 +00000-0 +39530-3 0  9999
2 32199 099.1793 291.0989 0117187 089.9020 271.5604 14.58091542263976
0 FENGYUN 1C DEB
1 32200U 99025CUW 19280.89925208 +.00000546 +00000-0 +34571-3 0  9993
2 32200 098.9982 322.8760 0044884 175.2274 184.9331 14.07709148625393
0 FENGYUN 1C DEB
1 32202U 99025CUY 19280.38743046 +.00002410 +00000-0 +10660-2 0  9991
2 32202 098.4163 330.9472 0116226 291.3432 067.5373 14.20531653325654
0 FENGYUN 1C DEB
1 32202U 99025CUY 19281.37353108  .00002479  00000-0  10956-2 0  9990
2 32202  98.4166 331.8864 0116437 288.4179  70.4369 14.20536660626027
0 FENGYUN 1C DEB
1 32203U 99025CUZ 19281.06707459  .00001405  00000-0  74405-4 0  9998
2 32203  97.0796  12.2754 0351347 182.2835 177.6793 14.76639233651616
0 FENGYUN 1C DEB
1 32203U 99025CUZ 19280.45717625 +.00001370 +00000-0 +72696-4 0  9997
2 32203 097.0797 011.7391 0351257 184.2972 175.5206 14.76637250414005
0 FENGYUN 1C DEB
1 32204U 99025CVA 19280.58371840 +.00003443 +00000-0 +90911-3 0  9999
2 32204 099.3155 195.3086 0120031 179.0336 181.1107 14.45442301379694
0 FENGYUN 1C DEB
1 32204U 99025CVA 19280.99905734  .00003380  00000-0  89274-3 0  9999
2 32204  99.3157 195.7641 0120035 177.7747 182.4000 14.45444821629921
0 FENGYUN 1C DEB
1 32208U 99025CVE 19280.55075226 +.00002480 +00000-0 +45197-3 0  9995
2 32208 098.9408 200.7342 0034002 251.3704 108.3804 14.66726327643689
0 FENGYUN 1C DEB
1 32209U 99025CVF 19280.64871011 +.00000650 +00000-0 +87898-3 0  9993
2 32209 099.4203 348.8520 0349827 230.1311 126.8567 13.40683983596717
0 FENGYUN 1C DEB
1 32210U 99025CVG 19281.31983591  .00000608  00000-0  40842-3 0  9998
2 32210  99.0744 319.6999 0076672 354.3115   5.7173 14.03152409623473
0 FENGYUN 1C DEB
1 32214U 99025CVL 19281.52835975  .00001048  00000-0  97817-3 0  9990
2 32214  99.0218  19.7828 0235299 285.9520 137.2088 13.72480073607994
0 FENGYUN 1C DEB
1 32217U 99025CVP 19281.49517553  .00000744  00000-0  27614-3 0  9998
2 32217  99.0998 167.8556 0048083 235.4937 124.1701 14.34782707634962
0 FENGYUN 1C DEB
1 32217U 99025CVP 19280.44912646 +.00000750 +00000-0 +27808-3 0  9996
2 32217 099.1002 166.7533 0048128 238.6367 121.0102 14.34781150234816
0 FENGYUN 1C DEB
1 32218U 99025CVQ 19280.52892444 +.00000527 +00000-0 +18247-3 0  9998
2 32218 098.6456 026.2821 0083168 336.4026 083.2866 14.37978700637383
0 FENGYUN 1C DEB
1 32218U 99025CVQ 19281.79974407  .00000529  00000-0  18305-3 0  9995
2 32218  98.6457  27.5608 0083113 332.5786 182.0176 14.37980123638421
0 FENGYUN 1C DEB
1 32221U 99025CVT 19280.73228828 +.00000101 +00000-0 +33176-4 0  9991
2 32221 098.3771 019.5897 0162365 229.5512 129.1430 14.51403034643979
0 FENGYUN 1C DEB
1 32221U 99025CVT 19281.07698881  .00000098  00000-0  32580-4 0  9992
2 32221  98.3772  19.9335 0162379 228.4900 130.2266 14.51403119645151
0 FENGYUN 1C DEB
1 32227U 99025CVZ 19280.06290743 +.00000579 +00000-0 +78007-4 0  9999
2 32227 099.4985 321.4810 0142005 317.2997 098.4120 14.77919404658055
0 FENGYUN 1C DEB
1 32228U 99025CWA 19281.45758449  .00001057  00000-0  28951-3 0  9990
2 32228  98.6125 357.8103 0093123 199.5674 160.1934 14.46829285645149
0 FENGYUN 1C DEB
1 32234U 99025CWG 19281.42828983  .00000424  00000-0  36313-3 0  9993
2 32234  98.5254 278.2369 0148280  62.8884 298.7312 13.86800897620252
0 FENGYUN 1C DEB
1 32238U 99025CWL 19280.44253363 +.00001302 +00000-0 +84311-4 0  9990
2 32238 098.9390 099.7802 0143668 021.5751 339.1441 15.02468437663585
0 FENGYUN 1C DEB
1 32241U 99025CWP 19280.11603414 +.00000691 +00000-0 +34397-3 0  9992
2 32241 098.9961 232.0652 0177718 156.6948 204.2408 14.12285131618289
0 FENGYUN 1C DEB
1 32243U 99025CWR 19280.54822611 +.00000370 +00000-0 +23180-3 0  9995
2 32243 098.2903 143.9070 0320585 306.6385 050.5688 13.87396397621563
0 FENGYUN 1C DEB
1 32243U 99025CWR 19281.05303743  .00000363  00000-0  22750-3 0  9996
2 32243  98.2902 144.3562 0320524 305.2459  51.9090 13.87396774621902
0 OPTUS D2
1 32252U 07044A   19280.87803759 -.00000200 +00000-0 +00000-0 0  9999
2 32252 000.0366 092.0836 0003656 098.8937 293.3511 01.00273637044060
0 OPTUS D2
1 32252U 07044A   19281.51748600 -.00000199  00000-0  00000+0 0  9990
2 32252   0.0382  91.2986 0003675 100.6610 163.2043  1.00273595 43940
0 INTELSAT 11 (PAS 11)
1 32253U 07044B   19281.43385880 -.00000285  00000-0  00000+0 0  9995
2 32253   0.0181 193.9296 0001732  25.0047 271.0582  1.00271105 44029
0 INTELSAT 11 (PAS 11)
1 32253U 07044B   19280.85963748 -.00000286 +00000-0 +00000-0 0  9997
2 32253 000.0011 192.3919 0001659 023.2008 067.1158 01.00271225044094
0 WGS F1 (USA 195)
1 32258U 07046A   19280.86940789 +.00000023 +00000-0 +00000-0 0  9993
2 32258 000.0186 180.8288 0000513 336.8381 177.5101 01.00271382027862
0 WGS F1 (USA 195)
1 32258U 07046A   19281.42896689  .00000024  00000-0  00000+0 0  9995
2 32258   0.0229 185.6417 0000394 347.7264   3.7873  1.00270912 43812
0 WGS F1 (USA 195)
1 32258U 07046A   19281.73080979  .00000025  00000-0  00000+0 0  9997
2 32258   0.0190 182.3517 0000438 341.4926 122.2902  1.00272503 43817
0 WGS F1 (USA 195)
1 32258U 07046A   19281.01785755  .00000024  00000-0  00000+0 0  9991
2 32258   0.0183 179.3906 0000506 339.3840 229.9905  1.00271436 43816
0 NAVSTAR 60 (USA 196)
1 32260U 07047A   19280.69570191 -.00000046  00000-0  00000+0 0  9999
2 32260  53.1731 181.3086 0116528  46.1515 314.8497  2.00574273 87806
0 NAVSTAR 60 (USA 196)
1 32260U 07047A   19280.69570191 -.00000046 +00000-0 +00000-0 0  9990
2 32260 053.1731 181.3086 0116528 046.1515 314.8497 02.00574273087828
0 DELTA 2 R/B(2) (PAM-D)
1 32261U 07047B   19280.85645925 +.00233486 +30253-5 +66835-3 0  9991
2 32261 039.6543 285.5585 1670216 157.5948 210.7306 12.41050806306078
0 DELTA 2 R/B(2) (PAM-D)
1 32261U 07047B   19281.41959510  .00248466  29723-5  70962-3 0  9992
2 32261  39.6543 283.3743 1669027 160.3809 206.9774 12.41328699306148
0 DELTA 2 R/B(2) (PAM-D)
1 32261U 07047B   19281.09781947  .00234014  30030-5  66941-3 0  9992
2 32261  39.6542 284.6227 1669714 158.7885 209.1257 12.41166481306102
0 GLOBALSTAR M067
1 32263U 07048A   19281.47713278 -.00000104  00000-0 -46612-4 0  9995
2 32263  51.9757 357.8198 0000738 207.2947 224.4631 12.40586206551717
0 GLOBALSTAR M067
1 32263U 07048A   19280.76310098 -.00000105 +00000-0 -60255-4 0  9999
2 32263 051.9757 359.9087 0000748 204.4842 276.8101 12.40586211551608
0 GLOBALSTAR M070
1 32264U 07048B   19280.71434897 -.00000123 +00000-0 -10719-3 0  9998
2 32264 051.9774 342.9520 0000916 264.0982 218.5020 12.62264694551241
0 GLOBALSTAR M070
1 32264U 07048B   19281.50237472 -.00000115  00000-0 -61005-4 0  9992
2 32264  51.9773 340.5516 0000933 267.1969 198.0579 12.62264703552138
0 GLOBALSTAR M066
1 32265U 07048C   19280.27063097 -.00000091 +00000-0 +70032-4 0  9998
2 32265 051.9669 207.0994 0001615 030.3216 074.1908 12.62260691553394
0 GLOBALSTAR M066
1 32265U 07048C   19281.15157146 -.00000098  00000-0  30559-4 0  9992
2 32265  51.9669 204.4156 0001649  32.5371 117.0435 12.62260708554312
0 GLOBALSTAR M068
1 32266U 07048D   19280.86908678 -.00000100 +00000-0 +21622-4 0  9999
2 32266 051.9876 159.8729 0000747 139.1957 300.2973 12.62707681555178
0 GLOBALSTAR M068
1 32266U 07048D   19281.20143597 -.00000095  00000-0  49439-4 0  9998
2 32266  51.9875 158.8600 0000738 139.2370  11.7672 12.62707704555192
0 COSMOS 2433 (GLONASS)
1 32275U 07052A   19281.53092851 -.00000070  00000-0  10000-3 0  9999
2 32275  65.8948  37.3543 0003163 210.4294 183.8188  2.13104404 93021
0 COSMOS 2433 (GLONASS)
1 32275U 07052A   19280.67103124 -.00000067 +00000-0 +10000-3 0  9995
2 32275 065.8948 037.3829 0003135 210.2132 244.3478 02.13104399093002
